{
 "generated_at": "2026-07-09T08:28:01Z",
 "sources": [
  {
   "name": "CelesTrak",
   "url": "https://celestrak.org/NORAD/elements/",
   "license": "frei verfügbar; Attribution. Ursprünglich USSPACECOM/Space-Track."
  },
  {
   "name": "GCAT (J. McDowell, planet4589.org)",
   "url": "https://planet4589.org/space/gcat/",
   "license": "CC-BY 4.0"
  }
 ],
 "satellites": [
  {
   "norad": 58648,
   "name": "TIANMU-1 14",
   "intl": "2023-205D",
   "group": "weather",
   "gcat": {
    "class": "B",
    "category": "MET",
    "owner": "TIANMU",
    "state": "CN"
   },
   "omm": {
    "OBJECT_NAME": "TIANMU-1 14",
    "OBJECT_ID": "2023-205D",
    "EPOCH": "2026-07-08T23:51:42.871680",
    "MEAN_MOTION": 15.27089012,
    "ECCENTRICITY": 0.000594,
    "INCLINATION": 97.3399,
    "RA_OF_ASC_NODE": 210.4027,
    "ARG_OF_PERICENTER": 247.3632,
    "MEAN_ANOMALY": 112.6979,
    "EPHEMERIS_TYPE": 0,
    "CLASSIFICATION_TYPE": "U",
    "NORAD_CAT_ID": 58648,
    "ELEMENT_SET_NO": 999,
    "REV_AT_EPOCH": 14083,
    "BSTAR": 0.00013641171,
    "MEAN_MOTION_DOT": 0.00003552,
    "MEAN_MOTION_DDOT": 0
   }
  },
  {
   "norad": 58700,
   "name": "TIANMU-1 15",
   "intl": "2024-004A",
   "group": "weather",
   "gcat": {
    "class": "B",
    "category": "MET",
    "owner": "TIANMU",
    "state": "CN"
   },
   "omm": {
    "OBJECT_NAME": "TIANMU-1 15",
    "OBJECT_ID": "2024-004A",
    "EPOCH": "2026-07-08T23:41:17.609568",
    "MEAN_MOTION": 15.26871532,
    "ECCENTRICITY": 0.00057266,
    "INCLINATION": 97.4673,
    "RA_OF_ASC_NODE": 16.1779,
    "ARG_OF_PERICENTER": 255.5298,
    "MEAN_ANOMALY": 104.5306,
    "EPHEMERIS_TYPE": 0,
    "CLASSIFICATION_TYPE": "U",
    "NORAD_CAT_ID": 58700,
    "ELEMENT_SET_NO": 999,
    "REV_AT_EPOCH": 13910,
    "BSTAR": 0.00013529304,
    "MEAN_MOTION_DOT": 0.00003497,
    "MEAN_MOTION_DDOT": 0
   }
  },
  {
   "norad": 58701,
   "name": "TIANMU-1 16",
   "intl": "2024-004B",
   "group": "weather",
   "gcat": {
    "class": "B",
    "category": "MET",
    "owner": "TIANMU",
    "state": "CN"
   },
   "omm": {
    "OBJECT_NAME": "TIANMU-1 16",
    "OBJECT_ID": "2024-004B",
    "EPOCH": "2026-07-08T23:26:43.723680",
    "MEAN_MOTION": 15.26974484,
    "ECCENTRICITY": 0.0004315,
    "INCLINATION": 97.462,
    "RA_OF_ASC_NODE": 15.3877,
    "ARG_OF_PERICENTER": 275.5651,
    "MEAN_ANOMALY": 84.5095,
    "EPHEMERIS_TYPE": 0,
    "CLASSIFICATION_TYPE": "U",
    "NORAD_CAT_ID": 58701,
    "ELEMENT_SET_NO": 999,
    "REV_AT_EPOCH": 13910,
    "BSTAR": 0.0001397378,
    "MEAN_MOTION_DOT": 0.00003625,
    "MEAN_MOTION_DDOT": 0
   }
  },
  {
   "norad": 58702,
   "name": "TIANMU-1 17",
   "intl": "2024-004C",
   "group": "weather",
   "gcat": {
    "class": "B",
    "category": "MET",
    "owner": "TIANMU",
    "state": "CN"
   },
   "omm": {
    "OBJECT_NAME": "TIANMU-1 17",
    "OBJECT_ID": "2024-004C",
    "EPOCH": "2026-07-08T23:05:48.681600",
    "MEAN_MOTION": 15.2697233,
    "ECCENTRICITY": 0.00038671,
    "INCLINATION": 97.4649,
    "RA_OF_ASC_NODE": 15.8662,
    "ARG_OF_PERICENTER": 283.4419,
    "MEAN_ANOMALY": 76.6389,
    "EPHEMERIS_TYPE": 0,
    "CLASSIFICATION_TYPE": "U",
    "NORAD_CAT_ID": 58702,
    "ELEMENT_SET_NO": 999,
    "REV_AT_EPOCH": 13909,
    "BSTAR": 0.00013500129,
    "MEAN_MOTION_DOT": 0.000035,
    "MEAN_MOTION_DDOT": 0
   }
  },
  {
   "norad": 58703,
   "name": "TIANMU-1 18",
   "intl": "2024-004D",
   "group": "weather",
   "gcat": {
    "class": "B",
    "category": "MET",
    "owner": "TIANMU",
    "state": "CN"
   },
   "omm": {
    "OBJECT_NAME": "TIANMU-1 18",
    "OBJECT_ID": "2024-004D",
    "EPOCH": "2026-07-08T22:30:52.888032",
    "MEAN_MOTION": 15.26888703,
    "ECCENTRICITY": 0.00033985,
    "INCLINATION": 97.4667,
    "RA_OF_ASC_NODE": 16.104,
    "ARG_OF_PERICENTER": 255.473,
    "MEAN_ANOMALY": 104.6132,
    "EPHEMERIS_TYPE": 0,
    "CLASSIFICATION_TYPE": "U",
    "NORAD_CAT_ID": 58703,
    "ELEMENT_SET_NO": 999,
    "REV_AT_EPOCH": 13909,
    "BSTAR": 0.00013414953,
    "MEAN_MOTION_DOT": 0.00003468,
    "MEAN_MOTION_DDOT": 0
   }
  },
  {
   "norad": 58660,
   "name": "TIANMU-1 19",
   "intl": "2023-208A",
   "group": "weather",
   "gcat": {
    "class": "B",
    "category": "MET",
    "owner": "TIANMU",
    "state": "CN"
   },
   "omm": {
    "OBJECT_NAME": "TIANMU-1 19",
    "OBJECT_ID": "2023-208A",
    "EPOCH": "2026-07-08T23:24:59.585760",
    "MEAN_MOTION": 15.31910688,
    "ECCENTRICITY": 0.00040182,
    "INCLINATION": 97.4514,
    "RA_OF_ASC_NODE": 306.3936,
    "ARG_OF_PERICENTER": 223.2431,
    "MEAN_ANOMALY": 136.8495,
    "EPHEMERIS_TYPE": 0,
    "CLASSIFICATION_TYPE": "U",
    "NORAD_CAT_ID": 58660,
    "ELEMENT_SET_NO": 999,
    "REV_AT_EPOCH": 14066,
    "BSTAR": 0.00017235298,
    "MEAN_MOTION_DOT": 0.00005231,
    "MEAN_MOTION_DDOT": 0
   }
  },
  {
   "norad": 58661,
   "name": "TIANMU-1 20",
   "intl": "2023-208B",
   "group": "weather",
   "gcat": {
    "class": "B",
    "category": "MET",
    "owner": "TIANMU",
    "state": "CN"
   },
   "omm": {
    "OBJECT_NAME": "TIANMU-1 20",
    "OBJECT_ID": "2023-208B",
    "EPOCH": "2026-07-08T22:21:05.443200",
    "MEAN_MOTION": 15.33099113,
    "ECCENTRICITY": 0.00058476,
    "INCLINATION": 97.4456,
    "RA_OF_ASC_NODE": 307.0069,
    "ARG_OF_PERICENTER": 237.726,
    "MEAN_ANOMALY": 122.3416,
    "EPHEMERIS_TYPE": 0,
    "CLASSIFICATION_TYPE": "U",
    "NORAD_CAT_ID": 58661,
    "ELEMENT_SET_NO": 999,
    "REV_AT_EPOCH": 14075,
    "BSTAR": 0.0001711393,
    "MEAN_MOTION_DOT": 0.00005394,
    "MEAN_MOTION_DDOT": 0
   }
  },
  {
   "norad": 58662,
   "name": "TIANMU-1 21",
   "intl": "2023-208C",
   "group": "weather",
   "gcat": {
    "class": "B",
    "category": "MET",
    "owner": "TIANMU",
    "state": "CN"
   },
   "omm": {
    "OBJECT_NAME": "TIANMU-1 21",
    "OBJECT_ID": "2023-208C",
    "EPOCH": "2026-07-08T22:50:25.958976",
    "MEAN_MOTION": 15.3547405,
    "ECCENTRICITY": 0.00061155,
    "INCLINATION": 97.4516,
    "RA_OF_ASC_NODE": 309.8033,
    "ARG_OF_PERICENTER": 228.5762,
    "MEAN_ANOMALY": 131.4956,
    "EPHEMERIS_TYPE": 0,
    "CLASSIFICATION_TYPE": "U",
    "NORAD_CAT_ID": 58662,
    "ELEMENT_SET_NO": 999,
    "REV_AT_EPOCH": 14090,
    "BSTAR": 0.00019456069,
    "MEAN_MOTION_DOT": 0.00006627,
    "MEAN_MOTION_DDOT": 0
   }
  },
  {
   "norad": 58663,
   "name": "TIANMU-1 22",
   "intl": "2023-208D",
   "group": "weather",
   "gcat": {
    "class": "B",
    "category": "MET",
    "owner": "TIANMU",
    "state": "CN"
   },
   "omm": {
    "OBJECT_NAME": "TIANMU-1 22",
    "OBJECT_ID": "2023-208D",
    "EPOCH": "2026-07-08T23:09:36.407808",
    "MEAN_MOTION": 15.31367815,
    "ECCENTRICITY": 0.00023309,
    "INCLINATION": 97.4511,
    "RA_OF_ASC_NODE": 306.3001,
    "ARG_OF_PERICENTER": 250.8901,
    "MEAN_ANOMALY": 109.2088,
    "EPHEMERIS_TYPE": 0,
    "CLASSIFICATION_TYPE": "U",
    "NORAD_CAT_ID": 58663,
    "ELEMENT_SET_NO": 999,
    "REV_AT_EPOCH": 14066,
    "BSTAR": 0.00016397639,
    "MEAN_MOTION_DOT": 0.00004888,
    "MEAN_MOTION_DDOT": 0
   }
  },
  {
   "norad": 58297,
   "name": "UMBRA-07",
   "intl": "2023-174AT",
   "group": "sar",
   "gcat": {
    "class": "B",
    "category": "IMG-R",
    "owner": "UMBRA",
    "state": "US"
   },
   "omm": {
    "OBJECT_NAME": "UMBRA-07",
    "OBJECT_ID": "2023-174AT",
    "EPOCH": "2026-07-08T17:14:21.572736",
    "MEAN_MOTION": 15.09541732,
    "ECCENTRICITY": 0.0002873,
    "INCLINATION": 97.3779,
    "RA_OF_ASC_NODE": 244.6689,
    "ARG_OF_PERICENTER": 35.2924,
    "MEAN_ANOMALY": 324.8495,
    "EPHEMERIS_TYPE": 0,
    "CLASSIFICATION_TYPE": "U",
    "NORAD_CAT_ID": 58297,
    "ELEMENT_SET_NO": 999,
    "REV_AT_EPOCH": 14666,
    "BSTAR": 0.00040281275,
    "MEAN_MOTION_DOT": 0.00006404,
    "MEAN_MOTION_DDOT": 0
   }
  }
 ]
}
