UMBRA-07                
1 58297U 23174AT  26189.71830524  .00006404  00000+0  40281-3 0  9995
2 58297  97.3779 244.6689 0002873  35.2924 324.8495 15.09541732146664
TIANMU-1 14             
1 58648U 23205D   26189.99424620  .00003552  00000+0  13641-3 0  9997
2 58648  97.3399 210.4027 0005940 247.3632 112.6979 15.27089012140830
TIANMU-1 19             
1 58660U 23208A   26189.97568965  .00005231  00000+0  17235-3 0  9992
2 58660  97.4514 306.3936 0004018 223.2431 136.8495 15.31910688140662
TIANMU-1 20             
1 58661U 23208B   26189.93131300  .00005394  00000+0  17114-3 0  9994
2 58661  97.4456 307.0069 0005847 237.7260 122.3416 15.33099113140750
TIANMU-1 21             
1 58662U 23208C   26189.95168934  .00006627  00000+0  19456-3 0  9991
2 58662  97.4516 309.8033 0006115 228.5762 131.4956 15.35474050140909
TIANMU-1 22             
1 58663U 23208D   26189.96500472  .00004888  00000+0  16398-3 0  9999
2 58663  97.4511 306.3001 0002330 250.8901 109.2088 15.31367815140668
TIANMU-1 15             
1 58700U 24004A   26189.98700937  .00003497  00000+0  13529-3 0  9994
2 58700  97.4673  16.1779 0005726 255.5298 104.5306 15.26871532139108
TIANMU-1 16             
1 58701U 24004B   26189.97689495  .00003625  00000+0  13974-3 0  9996
2 58701  97.4620  15.3877 0004315 275.5651  84.5095 15.26974484139101
TIANMU-1 17             
1 58702U 24004C   26189.96236900  .00003500  00000+0  13500-3 0  9992
2 58702  97.4649  15.8662 0003867 283.4419  76.6389 15.26972330139095
TIANMU-1 18             
1 58703U 24004D   26189.93811213  .00003468  00000+0  13415-3 0  9994
2 58703  97.4667  16.1040 0003398 255.4730 104.6132 15.26888703139092
